CCSDS_OMM_VERS = 2.0
CREATION_DATE  = 
ORIGINATOR     = 

OBJECT_NAME    = LEOPARD
OBJECT_ID      = 1998-067YD
CENTER_NAME    = EARTH
REF_FRAME      = TEME
TIME_SYSTEM    = UTC
MEAN_ELEMENT_THEORY = SGP/SGP4

EPOCH          = 2026-02-28T04:37:32.438784
MEAN_MOTION    = 15.51105167
ECCENTRICITY   = .00076975
INCLINATION    = 51.6314
RA_OF_ASC_NODE = 118.9928
ARG_OF_PERICENTER = 122.6502
MEAN_ANOMALY   = 237.5231

EPHEMERIS_TYPE = 0
CLASSIFICATION_TYPE = U
NORAD_CAT_ID   = 67687
ELEMENT_SET_NO = 999
REV_AT_EPOCH   = 323
BSTAR          = .60918456E-3
MEAN_MOTION_DOT = .35896E-3
MEAN_MOTION_DDOT = 0

CCSDS_OMM_VERS = 2.0
CREATION_DATE  = 
ORIGINATOR     = 

OBJECT_NAME    = ISS OBJECT YE
OBJECT_ID      = 1998-067YE
CENTER_NAME    = EARTH
REF_FRAME      = TEME
TIME_SYSTEM    = UTC
MEAN_ELEMENT_THEORY = SGP/SGP4

EPOCH          = 2026-02-27T10:00:31.918176
MEAN_MOTION    = 15.51362636
ECCENTRICITY   = .00076193
INCLINATION    = 51.6320
RA_OF_ASC_NODE = 122.8134
ARG_OF_PERICENTER = 117.1331
MEAN_ANOMALY   = 243.0436

EPHEMERIS_TYPE = 0
CLASSIFICATION_TYPE = U
NORAD_CAT_ID   = 67688
ELEMENT_SET_NO = 999
REV_AT_EPOCH   = 311
BSTAR          = .73241565E-3
MEAN_MOTION_DOT = .43696E-3
MEAN_MOTION_DDOT = 0

CCSDS_OMM_VERS = 2.0
CREATION_DATE  = 
ORIGINATOR     = 

OBJECT_NAME    = PRC TEST SPACECRAFT 4
OBJECT_ID      = 2026-024A
CENTER_NAME    = EARTH
REF_FRAME      = TEME
TIME_SYSTEM    = UTC
MEAN_ELEMENT_THEORY = SGP/SGP4

EPOCH          = 2026-02-28T07:34:35.852736
MEAN_MOTION    = 14.91679680
ECCENTRICITY   = .00061481
INCLINATION    = 49.9854
RA_OF_ASC_NODE = 66.7753
ARG_OF_PERICENTER = 324.0242
MEAN_ANOMALY   = 36.0285

EPHEMERIS_TYPE = 0
CLASSIFICATION_TYPE = U
NORAD_CAT_ID   = 67689
ELEMENT_SET_NO = 999
REV_AT_EPOCH   = 318
BSTAR          = .31843462E-4
MEAN_MOTION_DOT = .8E-6
MEAN_MOTION_DDOT = 0

CCSDS_OMM_VERS = 2.0
CREATION_DATE  = 
ORIGINATOR     = 

OBJECT_NAME    = CZ-2F R/B
OBJECT_ID      = 2026-024B
CENTER_NAME    = EARTH
REF_FRAME      = TEME
TIME_SYSTEM    = UTC
MEAN_ELEMENT_THEORY = SGP/SGP4

EPOCH          = 2026-02-28T06:12:08.417664
MEAN_MOTION    = 15.33908612
ECCENTRICITY   = .01755508
INCLINATION    = 49.9880
RA_OF_ASC_NODE = 61.8867
ARG_OF_PERICENTER = 235.8249
MEAN_ANOMALY   = 122.5960

EPHEMERIS_TYPE = 0
CLASSIFICATION_TYPE = U
NORAD_CAT_ID   = 67690
ELEMENT_SET_NO = 999
REV_AT_EPOCH   = 324
BSTAR          = .33859616E-3
MEAN_MOTION_DOT = .18307E-3
MEAN_MOTION_DDOT = 0

CCSDS_OMM_VERS = 2.0
CREATION_DATE  = 
ORIGINATOR     = 

OBJECT_NAME    = CZ-2F DEB
OBJECT_ID      = 2026-024C
CENTER_NAME    = EARTH
REF_FRAME      = TEME
TIME_SYSTEM    = UTC
MEAN_ELEMENT_THEORY = SGP/SGP4

EPOCH          = 2026-02-28T06:33:39.921408
MEAN_MOTION    = 15.86936604
ECCENTRICITY   = .01833104
INCLINATION    = 49.9042
RA_OF_ASC_NODE = 55.6627
ARG_OF_PERICENTER = 248.4303
MEAN_ANOMALY   = 109.7055

EPHEMERIS_TYPE = 0
CLASSIFICATION_TYPE = U
NORAD_CAT_ID   = 67691
ELEMENT_SET_NO = 999
REV_AT_EPOCH   = 331
BSTAR          = .80706518E-3
MEAN_MOTION_DOT = .969621E-2
MEAN_MOTION_DDOT = .1069725E-4

CCSDS_OMM_VERS = 2.0
CREATION_DATE  = 
ORIGINATOR     = 

OBJECT_NAME    = CZ-2F DEB
OBJECT_ID      = 2026-024D
CENTER_NAME    = EARTH
REF_FRAME      = TEME
TIME_SYSTEM    = UTC
MEAN_ELEMENT_THEORY = SGP/SGP4

EPOCH          = 2026-02-28T07:05:44.820960
MEAN_MOTION    = 15.21241006
ECCENTRICITY   = .02454376
INCLINATION    = 50.3172
RA_OF_ASC_NODE = 64.7326
ARG_OF_PERICENTER = 243.1341
MEAN_ANOMALY   = 114.4338

EPHEMERIS_TYPE = 0
CLASSIFICATION_TYPE = U
NORAD_CAT_ID   = 67692
ELEMENT_SET_NO = 999
REV_AT_EPOCH   = 319
BSTAR          = .3646202E-2
MEAN_MOTION_DOT = .195848E-2
MEAN_MOTION_DDOT = 0

CCSDS_OMM_VERS = 2.0
CREATION_DATE  = 
ORIGINATOR     = 

OBJECT_NAME    = STARLINK-36748
OBJECT_ID      = 2026-025A
CENTER_NAME    = EARTH
REF_FRAME      = TEME
TIME_SYSTEM    = UTC
MEAN_ELEMENT_THEORY = SGP/SGP4

EPOCH          = 2026-02-28T06:24:20.134944
MEAN_MOTION    = 15.75254783
ECCENTRICITY   = .00011936
INCLINATION    = 97.2841
RA_OF_ASC_NODE = 170.3341
ARG_OF_PERICENTER = 99.3916
MEAN_ANOMALY   = 260.7484

EPHEMERIS_TYPE = 0
CLASSIFICATION_TYPE = U
NORAD_CAT_ID   = 67693
ELEMENT_SET_NO = 999
REV_AT_EPOCH   = 445
BSTAR          = .10297296E-2
MEAN_MOTION_DOT = .15675E-2
MEAN_MOTION_DDOT = 0

CCSDS_OMM_VERS = 2.0
CREATION_DATE  = 
ORIGINATOR     = 

OBJECT_NAME    = STARLINK-36753
OBJECT_ID      = 2026-025B
CENTER_NAME    = EARTH
REF_FRAME      = TEME
TIME_SYSTEM    = UTC
MEAN_ELEMENT_THEORY = SGP/SGP4

EPOCH          = 2026-02-28T06:13:09.108480
MEAN_MOTION    = 15.75276794
ECCENTRICITY   = .00015446
INCLINATION    = 97.2842
RA_OF_ASC_NODE = 170.3436
ARG_OF_PERICENTER = 92.8354
MEAN_ANOMALY   = 267.3088

EPHEMERIS_TYPE = 0
CLASSIFICATION_TYPE = U
NORAD_CAT_ID   = 67694
ELEMENT_SET_NO = 999
REV_AT_EPOCH   = 446
BSTAR          = .1104713E-2
MEAN_MOTION_DOT = .16857E-2
MEAN_MOTION_DDOT = 0

CCSDS_OMM_VERS = 2.0
CREATION_DATE  = 
ORIGINATOR     = 

OBJECT_NAME    = STARLINK-36750
OBJECT_ID      = 2026-025C
CENTER_NAME    = EARTH
REF_FRAME      = TEME
TIME_SYSTEM    = UTC
MEAN_ELEMENT_THEORY = SGP/SGP4

EPOCH          = 2026-02-28T05:56:49.214112
MEAN_MOTION    = 15.80920453
ECCENTRICITY   = .00013637
INCLINATION    = 97.2844
RA_OF_ASC_NODE = 170.3602
ARG_OF_PERICENTER = 122.2617
MEAN_ANOMALY   = 237.8784

EPHEMERIS_TYPE = 0
CLASSIFICATION_TYPE = U
NORAD_CAT_ID   = 67695
ELEMENT_SET_NO = 999
REV_AT_EPOCH   = 445
BSTAR          = .11590927E-2
MEAN_MOTION_DOT = .228891E-2
MEAN_MOTION_DDOT = 0

CCSDS_OMM_VERS = 2.0
CREATION_DATE  = 
ORIGINATOR     = 

OBJECT_NAME    = STARLINK-36401
OBJECT_ID      = 2026-025D
CENTER_NAME    = EARTH
REF_FRAME      = TEME
TIME_SYSTEM    = UTC
MEAN_ELEMENT_THEORY = SGP/SGP4

EPOCH          = 2026-02-28T05:54:54.894816
MEAN_MOTION    = 15.79680827
ECCENTRICITY   = .00015256
INCLINATION    = 97.2846
RA_OF_ASC_NODE = 170.3615
ARG_OF_PERICENTER = 143.7187
MEAN_ANOMALY   = 216.4184

EPHEMERIS_TYPE = 0
CLASSIFICATION_TYPE = U
NORAD_CAT_ID   = 67696
ELEMENT_SET_NO = 999
REV_AT_EPOCH   = 445
BSTAR          = -.29759042E-2
MEAN_MOTION_DOT = -.510926E-2
MEAN_MOTION_DDOT = 0

CCSDS_OMM_VERS = 2.0
CREATION_DATE  = 
ORIGINATOR     = 

OBJECT_NAME    = STARLINK-36704
OBJECT_ID      = 2026-025E
CENTER_NAME    = EARTH
REF_FRAME      = TEME
TIME_SYSTEM    = UTC
MEAN_ELEMENT_THEORY = SGP/SGP4

EPOCH          = 2026-02-28T06:10:06.306816
MEAN_MOTION    = 15.75245765
ECCENTRICITY   = .00013989
INCLINATION    = 97.2844
RA_OF_ASC_NODE = 170.3461
ARG_OF_PERICENTER = 82.2185
MEAN_ANOMALY   = 277.9239

EPHEMERIS_TYPE = 0
CLASSIFICATION_TYPE = U
NORAD_CAT_ID   = 67697
ELEMENT_SET_NO = 999
REV_AT_EPOCH   = 445
BSTAR          = .74552876E-3
MEAN_MOTION_DOT = .112823E-2
MEAN_MOTION_DDOT = 0

CCSDS_OMM_VERS = 2.0
CREATION_DATE  = 
ORIGINATOR     = 

OBJECT_NAME    = STARLINK-36697
OBJECT_ID      = 2026-025F
CENTER_NAME    = EARTH
REF_FRAME      = TEME
TIME_SYSTEM    = UTC
MEAN_ELEMENT_THEORY = SGP/SGP4

EPOCH          = 2026-02-28T05:47:30.977664
MEAN_MOTION    = 15.80937126
ECCENTRICITY   = .00013463
INCLINATION    = 97.2852
RA_OF_ASC_NODE = 170.3680
ARG_OF_PERICENTER = 92.0666
MEAN_ANOMALY   = 268.0757

EPHEMERIS_TYPE = 0
CLASSIFICATION_TYPE = U
NORAD_CAT_ID   = 67698
ELEMENT_SET_NO = 999
REV_AT_EPOCH   = 445
BSTAR          = .12808347E-2
MEAN_MOTION_DOT = .253873E-2
MEAN_MOTION_DDOT = 0

