LEOPARD                 
1 67687U 98067YD  26059.19273656  .00035896  00000+0  60918-3 0  9992
2 67687  51.6314 118.9928 0007697 122.6502 237.5231 15.51105167  3234
ISS OBJECT YE           
1 67688U 98067YE  26058.41703609  .00043696  00000+0  73242-3 0  9994
2 67688  51.6320 122.8134 0007619 117.1331 243.0436 15.51362636  3110
PRC TEST SPACECRAFT 4   
1 67689U 26024A   26059.31569274  .00000080  00000+0  31843-4 0  9999
2 67689  49.9854  66.7753 0006148 324.0242  36.0285 14.91679680  3184
CZ-2F R/B               
1 67690U 26024B   26059.25843076  .00018307  00000+0  33860-3 0  9990
2 67690  49.9880  61.8867 0175550 235.8249 122.5960 15.33908612  3242
CZ-2F DEB               
1 67691U 26024C   26059.27337872  .00969621  10697-4  80707-3 0  9999
2 67691  49.9042  55.6627 0183310 248.4303 109.7055 15.86936604  3312
CZ-2F DEB               
1 67692U 26024D   26059.29565765  .00195848  00000+0  36462-2 0  9998
2 67692  50.3172  64.7326 0245437 243.1341 114.4338 15.21241006  3190
STARLINK-36748          
1 67693U 26025A   26059.26689971  .00156750  00000+0  10297-2 0  9990
2 67693  97.2841 170.3341 0001193  99.3916 260.7484 15.75254783  4455
STARLINK-36753          
1 67694U 26025B   26059.25913320  .00168570  00000+0  11047-2 0  9995
2 67694  97.2842 170.3436 0001544  92.8354 267.3088 15.75276794  4466
STARLINK-36750          
1 67695U 26025C   26059.24779183  .00228891  00000+0  11591-2 0  9999
2 67695  97.2844 170.3602 0001363 122.2617 237.8784 15.80920453  4451
STARLINK-36401          
1 67696U 26025D   26059.24646869 -.00510926  00000+0 -29759-2 0  9994
2 67696  97.2846 170.3615 0001525 143.7187 216.4184 15.79680827  4451
STARLINK-36704          
1 67697U 26025E   26059.25701744  .00112823  00000+0  74553-3 0  9995
2 67697  97.2844 170.3461 0001398  82.2185 277.9239 15.75245765  4459
STARLINK-36697          
1 67698U 26025F   26059.24133076  .00253873  00000+0  12808-2 0  9997
2 67698  97.2852 170.3680 0001346  92.0666 268.0757 15.80937126  4459
